[{"OBJECT_NAME":"ONEWEB-0534","OBJECT_ID":"2023-029B","EPOCH":"2026-03-09T16:26:16.520352","MEAN_MOTION":13.207713,"ECCENTRICITY":0.00015764,"INCLINATION":87.916,"RA_OF_ASC_NODE":294.3454,"ARG_OF_PERICENTER":89.3396,"MEAN_ANOMALY":270.7918,"EPHEMERIS_TYPE":0,"CLASSIFICATION_TYPE":"U","NORAD_CAT_ID":55797,"ELEMENT_SET_NO":999,"REV_AT_EPOCH":14801,"BSTAR":-0.00044592109,"MEAN_MOTION_DOT":-1.68e-6,"MEAN_MOTION_DDOT":0},{"OBJECT_NAME":"DELTA 1 DEB","OBJECT_ID":"1975-052LY","EPOCH":"2026-03-09T09:11:27.158208","MEAN_MOTION":13.31678023,"ECCENTRICITY":0.00702073,"INCLINATION":99.693,"RA_OF_ASC_NODE":255.1117,"ARG_OF_PERICENTER":268.4263,"MEAN_ANOMALY":211.2195,"EPHEMERIS_TYPE":0,"CLASSIFICATION_TYPE":"U","NORAD_CAT_ID":42639,"ELEMENT_SET_NO":999,"REV_AT_EPOCH":59752,"BSTAR":0.0001782332,"MEAN_MOTION_DOT":4.5e-7,"MEAN_MOTION_DDOT":0}]
